NORAD_CAT_ID,OBJECT_NAME,OBJECT_TYPE,EPOCH,MEAN_MOTION,ECCENTRICITY,INCLINATION,RA_OF_ASC_NODE,ARG_OF_PERICENTER,MEAN_ANOMALY,BSTAR,MEAN_MOTION_DOT,MEAN_MOTION_DDOT,TLE_LINE0,TLE_LINE1,TLE_LINE2,SEMIMAJOR_AXIS,PERIOD,APOGEE,PERIGEE,DECAYED
53906.0,STARLINK-5054,PAYLOAD,2023-11-12 06:00:00,15.07211151,0.0001235,53.2141,162.6105,85.7897,277.5869,-0.0019623,-0.00030033,0.0,0 STARLINK-5054,1 53906U 22119W   23316.25001157 -.00030033  00000-0 -19623-2 0  9998,2 53906  53.2141 162.6105 0001235  85.7897 277.5869 15.07211151 63329,6922.864,95.541,545.584,543.874,0.0
53906.0,STARLINK-5054,PAYLOAD,2023-11-12 14:00:01,15.0719872,0.00013,53.2144,161.117,93.7583,279.2427,0.0016344,0.00024678,0.0,0 STARLINK-5054,1 53906U 22119W   23316.58334491  .00024678  00000-0  16344-2 0  9997,2 53906  53.2144 161.1170 0001300  93.7583 279.2427 15.07198720  5772,6922.902,95.541,545.667,543.867,0.0
53906.0,STARLINK-5054,PAYLOAD,2023-11-12 22:00:00,15.07206662,0.000137,53.2143,159.626,83.4863,299.1514,-0.0010874,-0.00016798,0.0,0 STARLINK-5054,1 53906U 22119W   23316.91667824 -.00016798  00000-0 -10874-2 0  9991,2 53906  53.2143 159.6260 0001370  83.4863 299.1514 15.07206662 63426,6922.877,95.541,545.691,543.794,0.0
53906.0,STARLINK-5054,PAYLOAD,2023-11-13 00:00:00,15.07183164,0.0001324,53.2142,159.253,82.2659,32.7863,0.0019486,0.00029484,0.0,0 STARLINK-5054,1 53906U 22119W   23317.00001157  .00029484  00000-0  19486-2 0  9995,2 53906  53.2142 159.2530 0001324  82.2659  32.7863 15.07183164  5830,6922.949,95.542,545.731,543.898,0.0
53906.0,STARLINK-5054,PAYLOAD,2023-11-13 14:00:01,15.07204121,0.0001366,53.2145,156.6389,95.4963,306.3884,0.00104,0.00015582,0.0,0 STARLINK-5054,1 53906U 22119W   23317.58334491  .00015582  00000-0  10400-2 0  9999,2 53906  53.2145 156.6389 0001366  95.4963 306.3884 15.07204121  5678,6922.885,95.541,545.696,543.804,0.0
53906.0,STARLINK-5054,PAYLOAD,2023-11-13 22:00:00,15.07197033,0.0001384,53.2144,155.1479,85.9605,325.563,0.0004582,6.697e-05,0.0,0 STARLINK-5054,1 53906U 22119W   23317.91667824  .00006697  00000-0  45820-3 0  9997,2 53906  53.2144 155.1479 0001384  85.9605 325.5630 15.07197033 63576,6922.907,95.542,545.73,543.814,0.0
53906.0,STARLINK-5054,PAYLOAD,2023-11-14 14:00:01,15.07213055,0.0001352,53.2145,152.1609,97.452,333.3224,0.00030031,4.292e-05,0.0,0 STARLINK-5054,1 53906U 22119W   23318.58334491  .00004292  00000-0  30031-3 0  9999,2 53906  53.2145 152.1609 0001352  97.4520 333.3224 15.07213055  5821,6922.858,95.541,545.659,543.787,0.0
53906.0,STARLINK-5054,PAYLOAD,2023-11-14 22:00:00,15.07199289,0.000134,53.2144,150.6699,85.9952,354.4247,-1.859e-05,-5.66e-06,0.0,0 STARLINK-5054,1 53906U 22119W   23318.91667824 -.00000566  00000-0 -18590-4 0  9994,2 53906  53.2144 150.6699 0001340  85.9952 354.4247 15.07199289  5821,6922.9,95.541,545.693,543.837,0.0
53906.0,STARLINK-5054,PAYLOAD,2023-11-15 00:00:00,15.07182878,0.0001296,53.2142,150.2967,83.8088,89.0229,0.0022222,0.00033684,0.0,0 STARLINK-5054,1 53906U 22119W   23319.00001157  .00033684  00000-0  22222-2 0  9996,2 53906  53.2142 150.2967 0001296  83.8088  89.0229 15.07182878 63731,6922.95,95.542,545.712,543.918,0.0
53906.0,STARLINK-5054,PAYLOAD,2023-11-15 13:33:36,15.07203596,0.0001382,53.2139,147.7654,91.3342,268.7808,8.5929e-05,1.025e-05,0.0,0 STARLINK-5054,1 53906U 22119W   23319.56500818  .00001025  00000-0  85929-4 0  9994,2 53906  53.2139 147.7654 0001382  91.3342 268.7808 15.07203596 64241,6922.887,95.541,545.708,543.795,0.0
53906.0,STARLINK-5054,PAYLOAD,2023-11-15 19:55:34,15.07204854,0.0001373,53.2138,146.5777,91.2596,268.8552,8.7501e-05,1.049e-05,0.0,0 STARLINK-5054,1 53906U 22119W   23319.83025529  .00001049  00000-0  87501-4 0  9999,2 53906  53.2138 146.5777 0001373  91.2596 268.8552 15.07204854 63865,6922.883,95.541,545.698,543.797,0.0
53906.0,STARLINK-5054,PAYLOAD,2023-11-16 21:23:23,15.07205636,0.0001242,53.2152,141.827,90.5101,269.6033,4.989e-05,4.76e-06,0.0,0 STARLINK-5054,1 53906U 22119W   23320.89124556  .00000476  00000-0  49890-4 0  9999,2 53906  53.2152 141.8270 0001242  90.5101 269.6033 15.07205636 64443,6922.88,95.541,545.605,543.886,0.0
53906.0,STARLINK-5054,PAYLOAD,2023-11-17 11:42:48,15.07204545,0.0001253,53.2154,139.1545,91.3068,268.8067,0.00010126,1.258e-05,0.0,0 STARLINK-5054,1 53906U 22119W   23321.48805605  .00001258  00000-0  10126-3 0  9994,2 53906  53.2154 139.1545 0001253  91.3068 268.8067 15.07204545 64539,6922.884,95.541,545.616,543.881,0.0
53906.0,STARLINK-5054,PAYLOAD,2023-11-17 21:15:44,15.07205678,0.0001295,53.2152,137.3723,89.2888,270.8251,8.9054e-05,1.072e-05,0.0,0 STARLINK-5054,1 53906U 22119W   23321.88592682  .00001072  00000-0  89054-4 0  9997,2 53906  53.2152 137.3723 0001295  89.2888 270.8251 15.07205678 64599,6922.88,95.541,545.642,543.849,0.0
53906.0,STARLINK-5054,PAYLOAD,2023-11-18 05:13:10,15.0720713,0.0001339,53.2159,135.8881,89.5142,270.6003,0.00011023,1.395e-05,0.0,0 STARLINK-5054,1 53906U 22119W   23322.21748561  .00001395  00000-0  11023-3 0  9992,2 53906  53.2159 135.8881 0001339  89.5142 270.6003 15.07207130 64227,6922.876,95.541,545.668,543.814,0.0
53906.0,STARLINK-5054,PAYLOAD,2023-11-18 21:08:03,15.07209658,0.0001317,53.2155,132.9176,92.7027,267.4115,0.00013018,1.699e-05,0.0,0 STARLINK-5054,1 53906U 22119W   23322.88060003  .00001699  00000-0  13018-3 0  9996,2 53906  53.2155 132.9176 0001317  92.7027 267.4115 15.07209658 64744,6922.868,95.541,545.645,543.821,0.0
53906.0,STARLINK-5054,PAYLOAD,2023-11-19 11:27:28,15.0720848,0.0001361,53.2158,130.2462,88.2073,271.9074,9.9764e-05,1.236e-05,0.0,0 STARLINK-5054,1 53906U 22119W   23323.47740877  .00001236  00000-0  99764-4 0  9996,2 53906  53.2158 130.2462 0001361  88.2073 271.9074 15.07208480 64416,6922.872,95.541,545.679,543.795,0.0
53906.0,STARLINK-5054,PAYLOAD,2023-11-19 21:00:23,15.07210028,0.0001356,53.216,128.4639,91.8064,268.3082,9.1836e-05,1.115e-05,0.0,0 STARLINK-5054,1 53906U 22119W   23323.87527728  .00001115  00000-0  91836-4 0  9996,2 53906  53.2160 128.4639 0001356  91.8064 268.3082 15.07210028 64890,6922.867,95.541,545.671,543.793,0.0
53906.0,STARLINK-5054,PAYLOAD,2023-11-20 14:30:47,15.07206895,0.0001384,53.2156,125.1973,92.6441,267.4708,1.1301e-05,-1.11e-06,0.0,0 STARLINK-5054,1 53906U 22119W   23324.60471206 -.00000111  00000-0  11301-4 0  9992,2 53906  53.2156 125.1973 0001384  92.6441 267.4708 15.07206895 65005,6922.877,95.541,545.7,543.784,0.0
53906.0,STARLINK-5054,PAYLOAD,2023-11-20 17:41:45,15.07207031,0.000137,53.2162,124.6034,92.4926,267.6222,7.3782e-06,-1.71e-06,0.0,0 STARLINK-5054,1 53906U 22119W   23324.73733527 -.00000171  00000-0  73782-5 0  9991,2 53906  53.2162 124.6034 0001370  92.4926 267.6222 15.07207031 64606,6922.876,95.541,545.69,543.793,0.0
53906.0,STARLINK-5054,PAYLOAD,2023-11-21 11:12:08,15.07203581,0.0001342,53.2165,121.3374,92.2312,267.8833,1.4763e-05,-5.9e-07,0.0,0 STARLINK-5054,1 53906U 22119W   23325.46676824 -.00000059  00000-0  14763-4 0  9996,2 53906  53.2165 121.3374 0001342  92.2312 267.8833 15.07203581 65131,6922.887,95.541,545.681,543.823,0.0
53906.0,STARLINK-5054,PAYLOAD,2023-11-21 15:58:36,15.07205416,0.0001351,53.2166,120.4466,92.2222,267.8924,2.9195e-05,1.61e-06,0.0,0 STARLINK-5054,1 53906U 22119W   23325.66570273  .00000161  00000-0  29195-4 0  9997,2 53906  53.2166 120.4466 0001351  92.2222 267.8924 15.07205416 65167,6922.881,95.541,545.681,543.811,0.0
53906.0,STARLINK-5054,PAYLOAD,2023-11-22 14:15:27,15.07207254,0.0001317,53.2169,116.2897,92.2569,267.8573,9.348e-05,1.14e-05,0.0,0 STARLINK-5054,1 53906U 22119W   23326.59406780  .00001140  00000-0  93480-4 0  9997,2 53906  53.2169 116.2897 0001317  92.2569 267.8573 15.07207254 65305,6922.876,95.541,545.652,543.829,0.0
53906.0,STARLINK-5054,PAYLOAD,2023-11-22 19:01:54,15.07214661,0.0001336,53.2168,115.3988,91.7939,268.3206,0.00015948,2.146e-05,0.0,0 STARLINK-5054,1 53906U 22119W   23326.79299724  .00002146  00000-0  15948-3 0  9996,2 53906  53.2168 115.3988 0001336  91.7939 268.3206 15.07214661 64916,6922.853,95.54,545.643,543.793,0.0
53906.0,STARLINK-5054,PAYLOAD,2023-11-23 14:07:48,15.07192384,0.0001624,53.2178,111.8336,71.6911,288.4257,0.00011406,1.453e-05,0.0,0 STARLINK-5054,1 53906U 22119W   23327.58875933  .00001453  00000-0  11406-3 0  9991,2 53906  53.2178 111.8336 0001624  71.6911 288.4257 15.07192384 65458,6922.921,95.542,545.91,543.662,0.0
53906.0,STARLINK-5054,PAYLOAD,2023-11-23 17:18:47,15.07198454,0.0001318,53.2172,111.2426,82.087,278.0271,3.1481e-05,1.96e-06,0.0,0 STARLINK-5054,1 53906U 22119W   23327.72138185  .00000196  00000-0  31481-4 0  9997,2 53906  53.2172 111.2426 0001318  82.0870 278.0271 15.07198454 65057,6922.902,95.541,545.68,543.855,0.0
53906.0,STARLINK-5054,PAYLOAD,2023-11-24 14:00:08,15.07208232,0.0001349,53.216,107.3832,77.8011,282.3131,6.8684e-05,7.62e-06,0.0,0 STARLINK-5054,1 53906U 22119W   23328.58343148  .00000762  00000-0  68684-4 0  9993,2 53906  53.2160 107.3832 0001349  77.8011 282.3131 15.07208232 65604,6922.873,95.541,545.671,543.804,0.0
53906.0,STARLINK-5054,PAYLOAD,2023-11-24 17:11:07,15.07211421,0.0001807,53.2167,106.7913,61.7492,298.3681,0.00014192,1.878e-05,0.0,0 STARLINK-5054,1 53906U 22119W   23328.71605450  .00001878  00000-0  14192-3 0  9998,2 53906  53.2167 106.7913 0001807  61.7492 298.3681 15.07211421 65205,6922.863,95.541,545.979,543.477,0.0
53906.0,STARLINK-5054,PAYLOAD,2023-11-25 13:52:29,15.07207841,0.0002066,53.2171,102.9307,51.167,308.9505,0.0002743,3.894e-05,0.0,0 STARLINK-5054,1 53906U 22119W   23329.57811436  .00003894  00000-0  27430-3 0  9995,2 53906  53.2171 102.9307 0002066  51.1670 308.9505 15.07207841 65758,6922.874,95.541,546.169,543.308,0.0
53906.0,STARLINK-5054,PAYLOAD,2023-11-25 18:38:56,15.07215858,0.00018,53.217,102.0308,60.601,299.5161,0.00030186,4.316e-05,0.0,0 STARLINK-5054,1 53906U 22119W   23329.77704395  .00004316  00000-0  30186-3 0  9994,2 53906  53.2170 102.0308 0001800  60.6010 299.5161 15.07215858 65780,6922.849,95.54,545.96,543.468,0.0
